{
"type": "FeatureCollection",
"name": "custom-outlines",
"crs": { "type": "name", "properties": { "name": "urn:ogc:def:crs:OGC:1.3:CRS84" } },
"features": [
{ "type": "Feature", "properties": { "fid": 1, "iso_a2": "TO" }, "geometry": { "type": "Polygon", "coordinates": [ [ [ 184.64452756664906, -21.821697823318722 ], [ 184.210472448538837, -21.418646642216359 ], [ 184.287982291058512, -20.33350884694077 ], [ 184.784045283184497, -19.07784939812187 ], [ 185.590147645389237, -18.318252941428959 ], [ 186.380748039090008, -18.225241130405337 ], [ 186.597775598145148, -18.597288374499826 ], [ 186.334242133578215, -19.713430106783289 ], [ 185.900187015467964, -21.093105303633685 ], [ 185.373120086334126, -21.7286860122951 ], [ 184.64452756664906, -21.821697823318722 ] ] ] } },
{ "type": "Feature", "properties": { "fid": 2, "iso_a2": "BS" }, "geometry": { "type": "Polygon", "coordinates": [ [ [ -72.692700024885383, 21.360283858412327 ], [ -72.382660654806656, 22.259398031640671 ], [ -72.289648843783027, 22.840721850538309 ], [ -72.746956914649175, 23.445298622191849 ], [ -73.289525812286954, 23.863851771798153 ], [ -73.909604552444435, 24.553689370223349 ], [ -74.607193135121619, 25.514811417467442 ], [ -75.49855632409799, 26.359668700932012 ], [ -76.583694119373575, 27.088261220617046 ], [ -77.506061245357827, 27.406051574947753 ], [ -78.265657702050746, 27.313039763924138 ], [ -79.13376793827122, 26.871233661561931 ], [ -79.312040576066494, 26.522439370223349 ], [ -79.257783686302716, 25.561317322979257 ], [ -79.056258095751531, 24.941238582821772 ], [ -78.730716757168864, 24.352163779672168 ], [ -78.281159670554672, 23.794092913530434 ], [ -77.47505730834996, 23.07325137809736 ], [ -76.312409670554672, 22.189639173372953 ], [ -75.374540576066494, 21.515303543451694 ], [ -74.661450024885383, 21.050244488333586 ], [ -74.095628174491679, 20.77120905526272 ], [ -73.312778765042879, 20.701450196995005 ], [ -72.692700024885383, 21.360283858412327 ] ] ] } },
{ "type": "Feature", "properties": { "fid": 3, "iso_a2": "ST" }, "geometry": { "type": "Polygon", "coordinates": [ [ [ 6.673503223146135, -0.280464173083764 ], [ 7.409846727083142, -0.106067027414473 ], [ 7.650127238894166, 0.149715452900488 ], [ 7.921411687713062, 1.126339468648519 ], [ 7.797395939681568, 1.804550590695764 ], [ 7.355589837319362, 1.994449704868992 ], [ 6.526234522358732, 1.541017126128834 ], [ 6.185191215272118, 0.711661811168204 ], [ 6.247199089287866, 0.006322244239071 ], [ 6.673503223146135, -0.280464173083764 ] ] ] } },
{ "type": "Feature", "properties": { "fid": 4, "iso_a2": "CV" }, "geometry": { "type": "Polygon", "coordinates": [ [ [ -23.249171481578291, 14.368896063136718 ], [ -22.799614394964117, 14.678935433215457 ], [ -22.295800418586165, 15.601302559199709 ], [ -22.388812229609787, 16.554673622191839 ], [ -22.582586835909002, 16.942222834790265 ], [ -22.846120300475928, 17.252262204869002 ], [ -23.745234473704276, 17.616558464711524 ], [ -24.272301402838131, 17.686317322979239 ], [ -25.295431324097979, 17.562301574947742 ], [ -25.713984473704279, 17.31427007888475 ], [ -25.969766954019239, 16.872463976522546 ], [ -26.070529749294828, 15.655559448963489 ], [ -25.993019906775146, 15.128492519829631 ], [ -25.163664591814509, 14.399900000144592 ], [ -24.543585851657028, 14.237129330853254 ], [ -23.830495300475931, 14.221627362349317 ], [ -23.249171481578291, 14.368896063136718 ] ] ] } },
{ "type": "Feature", "properties": { "fid": 5, "iso_a2": "KM" }, "geometry": { "type": "Polygon", "coordinates": [ [ [ 43.754211884563418, -12.763424310879014 ], [ 43.99449239637444, -12.802179232138855 ], [ 44.83934967983901, -12.410754527414445 ], [ 44.986618380626403, -12.116217125839643 ], [ 44.649450565665774, -11.441881495918384 ], [ 43.475176451492558, -11.023328346312084 ], [ 42.855097711335063, -11.139593110091614 ], [ 42.684576057791766, -11.775173818753029 ], [ 43.192265526295699, -12.476637893556177 ], [ 43.754211884563418, -12.763424310879014 ] ] ] } },
{ "type": "Feature", "properties": { "fid": 6, "iso_a2": "SC" }, "geometry": { "type": "Polygon", "coordinates": [ [ [ 45.947740427870485, -9.976945472296343 ], [ 46.412799482988603, -10.25598090536721 ], [ 47.087135112909863, -10.379996653398704 ], [ 47.970747317634263, -10.34899271639083 ], [ 49.768975664090959, -9.922688582532563 ], [ 52.481820152279937, -9.101084251823901 ], [ 54.644344758579152, -8.403495669146736 ], [ 56.256549482988603, -7.829922834501065 ], [ 57.302932357004352, -7.248599015603427 ], [ 57.783493380626396, -6.659524212453821 ], [ 58.031524876689389, -5.884425787256971 ], [ 58.047026845193322, -4.923303740012875 ], [ 57.814497317634263, -4.148205314816024 ], [ 57.333936294012219, -3.559130511666418 ], [ 55.837996333382293, -3.055316535288465 ], [ 54.628842790075211, -3.303348031351458 ], [ 53.047642002673633, -3.938928740012875 ], [ 51.512947120783871, -4.628766338438073 ], [ 50.024758144405922, -5.37286082662705 ], [ 48.714841805823241, -6.171212204579806 ], [ 47.583198105035841, -7.02382047229634 ], [ 46.738340821571271, -7.760163976233349 ], [ 46.180269955429544, -8.38024271639083 ], [ 45.85472861684687, -8.977068503792406 ], [ 45.761716805823241, -9.550641338438075 ], [ 45.947740427870485, -9.976945472296343 ] ] ] } },
{ "type": "Feature", "properties": { "fid": 7, "iso_a2": "MU" }, "geometry": { "type": "Polygon", "coordinates": [ [ [ 59.278024071392352, -21.787514250630856 ], [ 58.349993768362054, -21.787514250630856 ], [ 57.594311950180227, -21.535620311236915 ], [ 57.010978616846899, -21.031832432449036 ], [ 56.480675586543867, -19.825393038509645 ], [ 56.003402859271134, -17.916302129418732 ], [ 55.685221041089321, -15.781832432449036 ], [ 55.526130131998414, -13.42198394760055 ], [ 55.526130131998414, -11.725014250630853 ], [ 55.685221041089321, -10.690923341539941 ], [ 56.003402859271134, -9.975014250630849 ], [ 57.037493768362054, -9.484483947600545 ], [ 57.67385740472568, -9.696605159721759 ], [ 58.97309982896811, -11.075393038509638 ], [ 60.935221041089321, -13.620847583964187 ], [ 62.539387707755992, -15.993953644570249 ], [ 63.785599828968117, -18.194711220327825 ], [ 64.408705889574179, -19.626529402146009 ], [ 64.408705889574179, -20.289408190024798 ], [ 63.904918010786304, -20.819711220327829 ], [ 62.897342253210546, -21.217438493055099 ], [ 61.730675586543882, -21.509105159721763 ], [ 60.40491801078629, -21.694711220327825 ], [ 59.278024071392352, -21.787514250630856 ] ] ] } },
{ "type": "Feature", "properties": { "fid": 8, "iso_a2": "MV" }, "geometry": { "type": "Polygon", "coordinates": [ [ [ 73.105675586543867, -1.105696068812642 ], [ 72.668175586543867, -0.515733947600522 ], [ 72.509084677452961, 0.425553931187357 ], [ 72.422910435028712, 1.963432719066145 ], [ 72.409652859271148, 4.097902416035843 ], [ 72.422910435028712, 5.649038779672207 ], [ 72.462683162301445, 6.616841809975237 ], [ 72.840524071392366, 7.339379688763115 ], [ 73.397342253210539, 7.279720597854025 ], [ 73.622721041089321, 6.881993325126753 ], [ 73.781811950180227, 6.179341809975236 ], [ 73.901130131998414, 5.078963022096449 ], [ 73.980675586543867, 3.580856961490388 ], [ 73.987304374422663, 2.162296355429782 ], [ 73.921016495634774, 0.82328120391463 ], [ 73.841471041089321, -0.064976371842945 ], [ 73.582948313816587, -0.827286977903551 ], [ 73.105675586543867, -1.105696068812642 ] ] ] } },
{ "type": "Feature", "properties": { "fid": 9, "iso_a2": "SB" }, "geometry": { "type": "Polygon", "coordinates": [ [ [ 156.207474828968145, -6.604275614267175 ], [ 155.690429374422706, -6.922457432448994 ], [ 155.544596041089363, -7.081548341539902 ], [ 155.902550586543924, -8.344332432448994 ], [ 156.7344634653318, -9.043669553661115 ], [ 158.027077101695426, -9.892154402145962 ], [ 158.819217253210581, -10.508631674873236 ], [ 159.110883919877239, -10.893101371842931 ], [ 159.303118768362083, -11.317343796085357 ], [ 159.64781573805908, -12.152571068812628 ], [ 160.058800586543896, -12.43098015972172 ], [ 160.715050586543896, -12.623215008206568 ], [ 161.61656573805908, -12.729275614267173 ], [ 162.624141495634831, -12.755790765782324 ], [ 163.737777859271205, -12.702760462752019 ], [ 164.950846041089363, -12.69613167487323 ], [ 166.263346041089363, -12.735904402145959 ], [ 167.509558162301488, -12.848593796085353 ], [ 168.689482404725709, -13.034199856691412 ], [ 169.504823313816615, -12.967911977903533 ], [ 170.048383919877239, -11.807874099115654 ], [ 169.783232404725709, -10.442343796085353 ], [ 168.709368768362083, -9.275677129418685 ], [ 166.826793010786332, -8.307874099115654 ], [ 164.745353616846955, -7.538934705176262 ], [ 162.465050586543896, -6.968858947600506 ], [ 160.449899071392394, -6.577760462752021 ], [ 158.699899071392394, -6.365639250630808 ], [ 157.443743768362083, -6.322552129418688 ], [ 156.68143316230146, -6.44849909911566 ], [ 156.207474828968145, -6.604275614267175 ] ] ] } },
{ "type": "Feature", "properties": { "fid": 10, "iso_a2": "PW" }, "geometry": { "type": "Polygon", "coordinates": [ [ [ 130.699899071392451, 2.729057719066157 ], [ 131.574899071392451, 2.357845597854036 ], [ 132.396868768362168, 2.516936506944944 ], [ 134.040808162301545, 4.638148628157065 ], [ 135.366565738059137, 7.634360749369186 ], [ 135.021868768362168, 8.562391052399491 ], [ 134.412020283513669, 8.74799711300555 ], [ 133.139293010786389, 8.058603173611612 ], [ 131.362777859271262, 5.274512264520702 ], [ 130.699899071392451, 3.736633476641913 ], [ 130.699899071392451, 2.729057719066157 ] ] ] } },
{ "type": "Feature", "properties": { "fid": 11, "iso_a2": "FM" }, "geometry": { "type": "Polygon", "coordinates": [ [ [ 163.446111192604491, 4.240421355429813 ], [ 161.722626344119647, 2.994209234217692 ], [ 159.733989980483273, 1.814284991793449 ], [ 157.480202101695397, 0.700648628157085 ], [ 155.425277859271148, 0.316178931187388 ], [ 153.569217253210581, 0.660875900884359 ], [ 150.665808162301488, 1.907088022096481 ], [ 146.715050586543896, 4.054815294823753 ], [ 143.228308162301488, 5.831330446338905 ], [ 140.205580889574179, 7.236633476641934 ], [ 138.203686950180241, 8.164663779672239 ], [ 137.222626344119647, 8.615421355429813 ], [ 136.652550586543896, 9.105951658460118 ], [ 136.493459677452961, 9.636254688763145 ], [ 137.129823313816644, 11.054815294823753 ], [ 138.389293010786332, 11.532088022096481 ], [ 140.430959677452961, 11.717694082702542 ], [ 144.262399071392366, 11.372997113005571 ], [ 149.883611192604491, 10.497997113005571 ], [ 155.001035435028712, 9.477163779672237 ], [ 159.614671798665086, 8.310497113005571 ], [ 162.372247556240836, 7.43549711300557 ], [ 163.273762707756021, 6.852163779672237 ], [ 163.870353616846927, 6.136254688763147 ], [ 164.162020283513584, 5.287769840278298 ], [ 163.446111192604491, 4.240421355429813 ] ] ] } },
{ "type": "Feature", "properties": { "fid": 12, "iso_a2": "MH" }, "geometry": { "type": "Polygon", "coordinates": [ [ [ 167.814482404725737, 4.10121680997527 ], [ 168.251982404725737, 3.796292567551028 ], [ 168.894974828968174, 3.676974385732846 ], [ 169.743459677453018, 3.743262264520725 ], [ 170.963156647150015, 4.127731961490422 ], [ 172.554065738059109, 4.830383476641936 ], [ 173.442323313816672, 5.59932287058133 ], [ 173.627929374422706, 6.434550143308604 ], [ 173.442323313816644, 7.587959234217696 ], [ 172.885505131998485, 9.059550143308602 ], [ 172.229255131998485, 10.590800143308602 ], [ 171.473573313816644, 12.181709234217694 ], [ 170.757664222907579, 13.447807719066178 ], [ 170.081527859271205, 14.389095597854057 ], [ 169.524709677453018, 14.952542567551028 ], [ 169.087209677453018, 15.138148628157088 ], [ 168.676224828968174, 15.184550143308604 ], [ 168.291755131998457, 15.091747113005574 ], [ 167.68687823805908, 14.737106961490422 ], [ 166.861594147149987, 14.120629688763151 ], [ 166.066139601695454, 13.364947870581332 ], [ 165.300514601695454, 12.470061506944969 ], [ 164.831527859271205, 11.47905771906618 ], [ 164.659179374422735, 10.391936506944967 ], [ 165.328686950180298, 8.449701658460118 ], [ 166.840050586543924, 5.652353173611633 ], [ 167.814482404725737, 4.10121680997527 ] ] ] } },
{ "type": "Feature", "properties": { "fid": 13, "iso_a2": "KI" }, "geometry": { "type": "Polygon", "coordinates": [ [ [ 172.599498039089923, 3.182977373531678 ], [ 172.010423235940323, 2.65591044439782 ], [ 171.343838590271019, 2.059084656996245 ], [ 170.599744102082042, 1.392500011326953 ], [ 169.977376199217559, 0.579298037044866 ], [ 169.476734881677572, -0.380521265850018 ], [ 169.269501344119703, -1.039408190024733 ], [ 169.680486192604576, -1.854749099115642 ], [ 171.695637707756077, -3.034673341539884 ], [ 174.035599828968202, -3.724067280933823 ], [ 177.270780157268121, -4.313715163487813 ], [ 181.401178692655918, -4.803616989201854 ], [ 184.349990165074217, -5.133828728830528 ], [ 186.117214574523018, -5.304350382373835 ], [ 187.791427172948232, -5.273346445365961 ], [ 189.372627960349803, -5.040816917806906 ], [ 190.209734259562424, -4.606761799696669 ], [ 190.302746070586039, -3.971181091035253 ], [ 190.070216543026959, -2.700019673712417 ], [ 188.202229338302573, -2.219458650090369 ], [ 184.652278550900974, -1.893917311507693 ], [ 181.443371070586011, -1.529621051665173 ], [ 178.575506897357684, -1.126569870562811 ], [ 176.597917239542085, -0.617224272666421 ], [ 175.510602097139298, -0.001584257976002 ], [ 174.691849828968202, 0.723849385732843 ], [ 174.141660435028825, 1.559076658460116 ], [ 173.832709738513671, 2.305390509382623 ], [ 173.64975640523167, 3.357374519200969 ], [ 172.599498039089923, 3.182977373531678 ] ] ] } },
{ "type": "Feature", "properties": { "fid": 14, "iso_a2": "TV" }, "geometry": { "type": "Polygon", "coordinates": [ [ [ 176.133611192604548, -5.301718796085344 ], [ 176.531338465331828, -5.301718796085344 ], [ 177.071584677453018, -5.470752886994435 ], [ 177.754349828968174, -5.808821068812618 ], [ 178.433800586543924, -6.402097583964133 ], [ 179.109936950180298, -7.250582432448981 ], [ 179.719785435028797, -8.122268038509587 ], [ 180.263346041089392, -9.01715440214595 ], [ 180.356149071392423, -10.041302129418678 ], [ 180.031338465331828, -10.157305917297466 ], [ 178.652550586543924, -9.378423341539889 ], [ 177.485883919877267, -8.278044553661102 ], [ 176.617512707756049, -7.320184705176254 ], [ 176.047436950180298, -6.504843796085344 ], [ 175.891660435028797, -5.500582432448981 ], [ 176.133611192604548, -5.301718796085344 ] ] ] } },
{ "type": "Feature", "properties": { "fid": 15, "iso_a2": "FJ" }, "geometry": { "type": "Polygon", "coordinates": [ [ [ 175.537020283513755, -22.165355159721699 ], [ 175.059747556241007, -22.29793091729745 ], [ 174.045543010786474, -21.827286977903512 ], [ 174.085315738059194, -20.594332432448965 ], [ 174.555959677453131, -19.699446068812602 ], [ 175.298383919877381, -18.612324856691391 ], [ 175.855202101695568, -17.564976371842906 ], [ 176.226414222907692, -16.557400614267149 ], [ 176.438535435028882, -15.596226371842906 ], [ 176.491565738059194, -14.68145364457018 ], [ 176.557853616847069, -13.740165765782301 ], [ 176.637399071392508, -12.77236273547927 ], [ 176.876035435028882, -12.261946068812602 ], [ 177.784179374422848, -12.805506674873207 ], [ 178.407285435028882, -14.051718796085332 ], [ 179.269027859271318, -14.939976371842906 ], [ 180.3694066471501, -15.470279402145938 ], [ 181.06542937442282, -16.159673341539879 ], [ 181.357096041089505, -17.008158190024723 ], [ 181.410126344119789, -17.962703644570176 ], [ 181.224520283513755, -19.023309705176239 ], [ 180.395921798665256, -20.010999099115633 ], [ 178.92433088957435, -20.925771826388363 ], [ 177.585315738059194, -21.562135462751996 ], [ 176.378876344119817, -21.920090008206543 ], [ 175.537020283513755, -22.165355159721699 ] ] ] } },
{ "type": "Feature", "properties": { "fid": 16, "iso_a2": "VU" }, "geometry": { "type": "Polygon", "coordinates": [ [ [ 166.816849828968401, -13.020942280933818 ], [ 167.459842253210809, -13.213177129418668 ], [ 168.149236192604775, -13.95560137184291 ], [ 168.437588465332055, -14.751055917297457 ], [ 168.769027859271432, -15.911093796085332 ], [ 169.156811950180497, -17.094332432448969 ], [ 169.600940738059307, -18.300771826388367 ], [ 169.95889528351384, -19.228802129418668 ], [ 170.230675586544152, -19.878423341539879 ], [ 170.323478616847183, -20.269521826388363 ], [ 169.707001344119902, -20.438555917297453 ], [ 169.219785435028996, -19.924824856691394 ], [ 168.570164222907778, -18.917249099115637 ], [ 167.960315738059307, -18.072078644570183 ], [ 167.390239980483528, -17.389313493055031 ], [ 166.866565738059279, -16.673404402145941 ], [ 166.389293010786588, -15.92435137184291 ], [ 166.140713465332027, -15.012893038509576 ], [ 166.120827101695653, -13.939029402145939 ], [ 166.207001344119902, -13.282779402145939 ], [ 166.816849828968401, -13.020942280933818 ] ] ] } },
{ "type": "Feature", "properties": { "fid": 17, "iso_a2": "WS" }, "geometry": { "type": "Polygon", "coordinates": [ [ [ 187.303115165074217, -13.1871013666258 ], [ 187.861186031215965, -13.1871013666258 ], [ 188.248735243814394, -13.303366130405328 ], [ 188.636284456412795, -13.559148610720289 ], [ 188.791304141452173, -14.062962587098241 ], [ 188.636284456412795, -14.497017705208478 ], [ 188.031707684759255, -14.566776563476195 ], [ 187.194601385546662, -14.334247035917139 ], [ 186.791550204444292, -13.845935028043122 ], [ 186.869060046963995, -13.404128925680919 ], [ 187.303115165074217, -13.1871013666258 ] ] ] } },
{ "type": "Feature", "properties": { "fid": 18, "iso_a2": "BS" }, "geometry": { "type": "Polygon", "coordinates": [ [ [ -77.698677281598592, 27.447480704389317 ], [ -76.117479019829887, 26.715204460209545 ], [ -74.562202041040976, 25.529305763883006 ], [ -72.345932346266792, 22.859413616962058 ], [ -72.916200571822714, 20.941238676455754 ], [ -73.901209325055689, 20.75978969559705 ], [ -76.389652491117914, 22.237302825446498 ], [ -78.722567959301259, 24.155477765952806 ], [ -79.448363882736075, 25.684833461761887 ], [ -79.182670732192989, 26.942015686282925 ], [ -77.698677281598592, 27.447480704389317 ] ] ] } },
{ "type": "Feature", "properties": { "fid": 19, "iso_a2": "CV" }, "geometry": { "type": "Polygon", "coordinates": [ [ [ -23.873133174012874, 17.752920869938517 ], [ -22.395620044163429, 16.975282380544062 ], [ -22.162328497345101, 15.445926684734982 ], [ -22.888124420779913, 14.434996648522198 ], [ -24.75445679532659, 14.072098686804789 ], [ -26.154206076236594, 15.316320269835906 ], [ -25.920914529418262, 16.975282380544062 ], [ -25.195118605983442, 17.64923573801925 ], [ -23.873133174012874, 17.752920869938517 ] ] ] } }
]
}
